[{"OBJECT_NAME":"FENGYUN 1C DEB","OBJECT_ID":"1999-025AWH","EPOCH":"2026-03-05T16:52:44.434848","MEAN_MOTION":14.17783147,"ECCENTRICITY":0.0064649,"INCLINATION":98.7361,"RA_OF_ASC_NODE":228.4423,"ARG_OF_PERICENTER":93.1503,"MEAN_ANOMALY":41.202,"EPHEMERIS_TYPE":0,"CLASSIFICATION_TYPE":"U","NORAD_CAT_ID":30847,"ELEMENT_SET_NO":999,"REV_AT_EPOCH":97230,"BSTAR":0.0021496,"MEAN_MOTION_DOT":4.434e-5,"MEAN_MOTION_DDOT":0},{"OBJECT_NAME":"FENGYUN 1C DEB","OBJECT_ID":"1999-025AWJ","EPOCH":"2026-03-05T00:01:37.331328","MEAN_MOTION":14.35118071,"ECCENTRICITY":0.00433875,"INCLINATION":99.0599,"RA_OF_ASC_NODE":267.8573,"ARG_OF_PERICENTER":94.8564,"MEAN_ANOMALY":265.7576,"EPHEMERIS_TYPE":0,"CLASSIFICATION_TYPE":"U","NORAD_CAT_ID":30848,"ELEMENT_SET_NO":999,"REV_AT_EPOCH":98486,"BSTAR":0.0012610684,"MEAN_MOTION_DOT":3.592e-5,"MEAN_MOTION_DDOT":0},{"OBJECT_NAME":"FENGYUN 1C DEB","OBJECT_ID":"1999-025AWK","EPOCH":"2026-03-04T15:50:02.793120","MEAN_MOTION":14.19390631,"ECCENTRICITY":0.0051054,"INCLINATION":99.0382,"RA_OF_ASC_NODE":130.3262,"ARG_OF_PERICENTER":133.6158,"MEAN_ANOMALY":18.3585,"EPHEMERIS_TYPE":0,"CLASSIFICATION_TYPE":"U","NORAD_CAT_ID":30849,"ELEMENT_SET_NO":999,"REV_AT_EPOCH":97534,"BSTAR":0.0015987,"MEAN_MOTION_DOT":3.361e-5,"MEAN_MOTION_DDOT":0},{"OBJECT_NAME":"FENGYUN 1C DEB","OBJECT_ID":"1999-025AWL","EPOCH":"2026-03-05T13:50:48.257952","MEAN_MOTION":14.17000013,"ECCENTRICITY":0.011053,"INCLINATION":98.3941,"RA_OF_ASC_NODE":290.4434,"ARG_OF_PERICENTER":318.6716,"MEAN_ANOMALY":103.1718,"EPHEMERIS_TYPE":0,"CLASSIFICATION_TYPE":"U","NORAD_CAT_ID":30850,"ELEMENT_SET_NO":999,"REV_AT_EPOCH":96971,"BSTAR":0.0022126,"MEAN_MOTION_DOT":4.681e-5,"MEAN_MOTION_DDOT":0},{"OBJECT_NAME":"FENGYUN 1C DEB","OBJECT_ID":"1999-025AWN","EPOCH":"2026-03-05T12:14:49.598592","MEAN_MOTION":14.10448323,"ECCENTRICITY":0.0056323,"INCLINATION":98.7298,"RA_OF_ASC_NODE":84.8743,"ARG_OF_PERICENTER":1.8257,"MEAN_ANOMALY":358.311,"EPHEMERIS_TYPE":0,"CLASSIFICATION_TYPE":"U","NORAD_CAT_ID":30852,"ELEMENT_SET_NO":999,"REV_AT_EPOCH":97549,"BSTAR":0.00061528,"MEAN_MOTION_DOT":1.068e-5,"MEAN_MOTION_DDOT":0},{"OBJECT_NAME":"FENGYUN 1C DEB","OBJECT_ID":"1999-025AWS","EPOCH":"2026-03-05T11:41:36.785184","MEAN_MOTION":14.49285347,"ECCENTRICITY":0.0082725,"INCLINATION":98.2031,"RA_OF_ASC_NODE":251.8237,"ARG_OF_PERICENTER":344.0793,"MEAN_ANOMALY":43.632,"EPHEMERIS_TYPE":0,"CLASSIFICATION_TYPE":"U","NORAD_CAT_ID":30856,"ELEMENT_SET_NO":999,"REV_AT_EPOCH":97723,"BSTAR":0.0039435,"MEAN_MOTION_DOT":0.000157,"MEAN_MOTION_DDOT":0},{"OBJECT_NAME":"FENGYUN 1C DEB","OBJECT_ID":"1999-025AWT","EPOCH":"2026-03-04T22:33:14.080320","MEAN_MOTION":14.54783236,"ECCENTRICITY":0.0041343,"INCLINATION":98.9727,"RA_OF_ASC_NODE":64.4367,"ARG_OF_PERICENTER":47.6673,"MEAN_ANOMALY":312.8012,"EPHEMERIS_TYPE":0,"CLASSIFICATION_TYPE":"U","NORAD_CAT_ID":30857,"ELEMENT_SET_NO":999,"REV_AT_EPOCH":97917,"BSTAR":0.0056540157,"MEAN_MOTION_DOT":0.00024547,"MEAN_MOTION_DDOT":0},{"OBJECT_NAME":"FENGYUN 1C DEB","OBJECT_ID":"1999-025AWU","EPOCH":"2026-03-05T16:06:13.617216","MEAN_MOTION":14.17927715,"ECCENTRICITY":0.0029429,"INCLINATION":98.7852,"RA_OF_ASC_NODE":126.4824,"ARG_OF_PERICENTER":229.7454,"MEAN_ANOMALY":284.1831,"EPHEMERIS_TYPE":0,"CLASSIFICATION_TYPE":"U","NORAD_CAT_ID":30858,"ELEMENT_SET_NO":999,"REV_AT_EPOCH":98155,"BSTAR":0.00044545,"MEAN_MOTION_DOT":8.71e-6,"MEAN_MOTION_DDOT":0},{"OBJECT_NAME":"FENGYUN 1C DEB","OBJECT_ID":"1999-025AWV","EPOCH":"2026-03-05T15:35:32.173152","MEAN_MOTION":14.51026045,"ECCENTRICITY":0.0034189,"INCLINATION":98.9168,"RA_OF_ASC_NODE":124.6058,"ARG_OF_PERICENTER":143.7243,"MEAN_ANOMALY":216.6277,"EPHEMERIS_TYPE":0,"CLASSIFICATION_TYPE":"U","NORAD_CAT_ID":30859,"ELEMENT_SET_NO":999,"REV_AT_EPOCH":98236,"BSTAR":0.0030961,"MEAN_MOTION_DOT":0.00012315,"MEAN_MOTION_DDOT":0},{"OBJECT_NAME":"FENGYUN 1C DEB","OBJECT_ID":"1999-025AWW","EPOCH":"2026-03-05T11:19:00.186816","MEAN_MOTION":14.26103831,"ECCENTRICITY":0.0036833,"INCLINATION":98.8952,"RA_OF_ASC_NODE":144.2071,"ARG_OF_PERICENTER":307.7348,"MEAN_ANOMALY":52.0495,"EPHEMERIS_TYPE":0,"CLASSIFICATION_TYPE":"U","NORAD_CAT_ID":30860,"ELEMENT_SET_NO":999,"REV_AT_EPOCH":97695,"BSTAR":0.0014504,"MEAN_MOTION_DOT":3.448e-5,"MEAN_MOTION_DDOT":0},{"OBJECT_NAME":"FENGYUN 1C DEB","OBJECT_ID":"1999-025AWY","EPOCH":"2026-03-05T05:36:10.289088","MEAN_MOTION":14.44993662,"ECCENTRICITY":0.0049152,"INCLINATION":98.9532,"RA_OF_ASC_NODE":164.3153,"ARG_OF_PERICENTER":271.7121,"MEAN_ANOMALY":117.4043,"EPHEMERIS_TYPE":0,"CLASSIFICATION_TYPE":"U","NORAD_CAT_ID":30862,"ELEMENT_SET_NO":999,"REV_AT_EPOCH":97910,"BSTAR":0.0034773,"MEAN_MOTION_DOT":0.00012284,"MEAN_MOTION_DDOT":0},{"OBJECT_NAME":"FENGYUN 1C DEB","OBJECT_ID":"1999-025AWZ","EPOCH":"2026-03-05T11:05:12.975936","MEAN_MOTION":12.40853665,"ECCENTRICITY":0.0870615,"INCLINATION":99.1325,"RA_OF_ASC_NODE":241.0373,"ARG_OF_PERICENTER":76.1169,"MEAN_ANOMALY":317.6341,"EPHEMERIS_TYPE":0,"CLASSIFICATION_TYPE":"U","NORAD_CAT_ID":30863,"ELEMENT_SET_NO":999,"REV_AT_EPOCH":60766,"BSTAR":0.0033196,"MEAN_MOTION_DOT":1.695e-5,"MEAN_MOTION_DDOT":0},{"OBJECT_NAME":"FENGYUN 1C DEB","OBJECT_ID":"1999-025AXD","EPOCH":"2026-03-05T16:01:24.646368","MEAN_MOTION":14.28915083,"ECCENTRICITY":0.0052445,"INCLINATION":97.8752,"RA_OF_ASC_NODE":328.4766,"ARG_OF_PERICENTER":105.0771,"MEAN_ANOMALY":316.7194,"EPHEMERIS_TYPE":0,"CLASSIFICATION_TYPE":"U","NORAD_CAT_ID":30867,"ELEMENT_SET_NO":999,"REV_AT_EPOCH":97721,"BSTAR":0.0020897,"MEAN_MOTION_DOT":5.322e-5,"MEAN_MOTION_DDOT":0},{"OBJECT_NAME":"FENGYUN 1C DEB","OBJECT_ID":"1999-025AXE","EPOCH":"2026-03-05T10:54:46.253664","MEAN_MOTION":14.11169463,"ECCENTRICITY":0.0135488,"INCLINATION":98.2554,"RA_OF_ASC_NODE":300.9305,"ARG_OF_PERICENTER":335.864,"MEAN_ANOMALY":147.9436,"EPHEMERIS_TYPE":0,"CLASSIFICATION_TYPE":"U","NORAD_CAT_ID":30868,"ELEMENT_SET_NO":999,"REV_AT_EPOCH":97877,"BSTAR":0.00018777,"MEAN_MOTION_DOT":3.29e-6,"MEAN_MOTION_DDOT":0},{"OBJECT_NAME":"FENGYUN 1C DEB","OBJECT_ID":"1999-025AXJ","EPOCH":"2026-03-05T15:55:13.778688","MEAN_MOTION":14.39971053,"ECCENTRICITY":0.0042398,"INCLINATION":99.18,"RA_OF_ASC_NODE":127.9822,"ARG_OF_PERICENTER":143.9167,"MEAN_ANOMALY":6.5516,"EPHEMERIS_TYPE":0,"CLASSIFICATION_TYPE":"U","NORAD_CAT_ID":30872,"ELEMENT_SET_NO":999,"REV_AT_EPOCH":98929,"BSTAR":0.0012181,"MEAN_MOTION_DOT":3.827e-5,"MEAN_MOTION_DDOT":0},{"OBJECT_NAME":"FENGYUN 1C DEB","OBJECT_ID":"1999-025AXK","EPOCH":"2026-03-05T18:57:22.706496","MEAN_MOTION":14.19219695,"ECCENTRICITY":0.0109553,"INCLINATION":98.6162,"RA_OF_ASC_NODE":67.7942,"ARG_OF_PERICENTER":49.2815,"MEAN_ANOMALY":311.7814,"EPHEMERIS_TYPE":0,"CLASSIFICATION_TYPE":"U","NORAD_CAT_ID":30873,"ELEMENT_SET_NO":999,"REV_AT_EPOCH":98370,"BSTAR":0.00029043,"MEAN_MOTION_DOT":6.04e-6,"MEAN_MOTION_DDOT":0},{"OBJECT_NAME":"FENGYUN 1C DEB","OBJECT_ID":"1999-025AXL","EPOCH":"2026-03-05T14:13:42.149280","MEAN_MOTION":14.19828283,"ECCENTRICITY":0.0042594,"INCLINATION":98.4813,"RA_OF_ASC_NODE":96.7853,"ARG_OF_PERICENTER":157.984,"MEAN_ANOMALY":0.2588,"EPHEMERIS_TYPE":0,"CLASSIFICATION_TYPE":"U","NORAD_CAT_ID":30874,"ELEMENT_SET_NO":999,"REV_AT_EPOCH":98196,"BSTAR":0.00049079,"MEAN_MOTION_DOT":1.008e-5,"MEAN_MOTION_DDOT":0},{"OBJECT_NAME":"FENGYUN 1C DEB","OBJECT_ID":"1999-025AXN","EPOCH":"2026-03-05T10:26:01.476384","MEAN_MOTION":13.99254299,"ECCENTRICITY":0.0069041,"INCLINATION":98.8223,"RA_OF_ASC_NODE":51.4053,"ARG_OF_PERICENTER":47.929,"MEAN_ANOMALY":104.088,"EPHEMERIS_TYPE":0,"CLASSIFICATION_TYPE":"U","NORAD_CAT_ID":30876,"ELEMENT_SET_NO":999,"REV_AT_EPOCH":96866,"BSTAR":0.00039143,"MEAN_MOTION_DOT":5.38e-6,"MEAN_MOTION_DDOT":0},{"OBJECT_NAME":"FENGYUN 1C DEB","OBJECT_ID":"1999-025AXQ","EPOCH":"2026-03-05T12:21:16.908192","MEAN_MOTION":14.12079964,"ECCENTRICITY":0.0041671,"INCLINATION":98.7239,"RA_OF_ASC_NODE":68.7252,"ARG_OF_PERICENTER":59.4019,"MEAN_ANOMALY":93.7018,"EPHEMERIS_TYPE":0,"CLASSIFICATION_TYPE":"U","NORAD_CAT_ID":30878,"ELEMENT_SET_NO":999,"REV_AT_EPOCH":97535,"BSTAR":0.00070553,"MEAN_MOTION_DOT":1.261e-5,"MEAN_MOTION_DDOT":0},{"OBJECT_NAME":"FENGYUN 1C DEB","OBJECT_ID":"1999-025AXR","EPOCH":"2026-03-05T02:05:30.322464","MEAN_MOTION":14.72247684,"ECCENTRICITY":0.01897891,"INCLINATION":99.35,"RA_OF_ASC_NODE":297.7439,"ARG_OF_PERICENTER":27.1926,"MEAN_ANOMALY":333.9063,"EPHEMERIS_TYPE":0,"CLASSIFICATION_TYPE":"U","NORAD_CAT_ID":30879,"ELEMENT_SET_NO":999,"REV_AT_EPOCH":63149,"BSTAR":0.0037568984,"MEAN_MOTION_DOT":0.00031595,"MEAN_MOTION_DDOT":0},{"OBJECT_NAME":"FENGYUN 1C DEB","OBJECT_ID":"1999-025AXS","EPOCH":"2026-03-05T10:05:02.935104","MEAN_MOTION":14.26176294,"ECCENTRICITY":0.0022171,"INCLINATION":98.7841,"RA_OF_ASC_NODE":141.5083,"ARG_OF_PERICENTER":219.7122,"MEAN_ANOMALY":140.2435,"EPHEMERIS_TYPE":0,"CLASSIFICATION_TYPE":"U","NORAD_CAT_ID":30880,"ELEMENT_SET_NO":999,"REV_AT_EPOCH":97892,"BSTAR":0.0015665,"MEAN_MOTION_DOT":3.717e-5,"MEAN_MOTION_DDOT":0},{"OBJECT_NAME":"FENGYUN 1C DEB","OBJECT_ID":"1999-025AXU","EPOCH":"2026-03-04T23:24:02.242080","MEAN_MOTION":14.88852005,"ECCENTRICITY":0.01485211,"INCLINATION":97.9281,"RA_OF_ASC_NODE":124.3729,"ARG_OF_PERICENTER":130.455,"MEAN_ANOMALY":230.9728,"EPHEMERIS_TYPE":0,"CLASSIFICATION_TYPE":"U","NORAD_CAT_ID":30882,"ELEMENT_SET_NO":999,"REV_AT_EPOCH":872,"BSTAR":0.0014125307,"MEAN_MOTION_DOT":0.00016244,"MEAN_MOTION_DDOT":0},{"OBJECT_NAME":"FENGYUN 1C DEB","OBJECT_ID":"1999-025AXV","EPOCH":"2026-03-05T08:10:51.329568","MEAN_MOTION":14.14620634,"ECCENTRICITY":0.0111532,"INCLINATION":98.3509,"RA_OF_ASC_NODE":101.1775,"ARG_OF_PERICENTER":336.6187,"MEAN_ANOMALY":84.8465,"EPHEMERIS_TYPE":0,"CLASSIFICATION_TYPE":"U","NORAD_CAT_ID":30883,"ELEMENT_SET_NO":999,"REV_AT_EPOCH":98085,"BSTAR":0.00021905,"MEAN_MOTION_DOT":4.06e-6,"MEAN_MOTION_DDOT":0}]
